{"type": "FeatureCollection", "features": [ {"type": "Feature", "properties": {"norad_id": 29963, "name": "FENGYUN 1C DEB", "group": "fengyun-1c-debris", "lat": 13.493525645611077, "lon": 52.53875926609559, "alt_km": 821.5052756900795, "timestamp": "2025-12-12T09:49:09.004187+00:00", "meta": {"OBJECT_NAME": "FENGYUN 1C DEB", "OBJECT_ID": "1999-025KM", "EPOCH": "2025-12-11T21:53:28.757760", "MEAN_MOTION": 14.29456331, "ECCENTRICITY": 0.0051566, "INCLINATION": 98.9981, "RA_OF_ASC_NODE": 229.8467, "ARG_OF_PERICENTER": 304.6612, "MEAN_ANOMALY": 185.8546, "EPHEMERIS_TYPE": 0, "CLASSIFICATION_TYPE": "U", "NORAD_CAT_ID": 29963, "ELEMENT_SET_NO": 999, "REV_AT_EPOCH": 98131, "BSTAR": 0.0011601, "MEAN_MOTION_DOT": 2.957e-05, "MEAN_MOTION_DDOT": 0}, "tle": {"line1": "1 29963U 99025KM  25345.91213840  .00002957  00000+0  11601-2 0  9994", "line2": "2 29963  98.9981 229.8467 0051566 304.6612 185.8546 14.29456331981315"}}, "geometry": {"type": "Point", "coordinates": [52.53875926609559, 13.493525645611077]}}, {"type": "Feature", "properties": {"norad_id": 29964, "name": "FENGYUN 1C DEB", "group": "fengyun-1c-debris", "lat": 81.3769894097101, "lon": 85.1012544505913, "alt_km": 971.8208796269437, "timestamp": "2025-12-12T09:49:09.004197+00:00", "meta": {"OBJECT_NAME": "FENGYUN 1C DEB", "OBJECT_ID": "1999-025KN", "EPOCH": "2025-12-12T02:31:37.541568", "MEAN_MOTION": 14.027401, "ECCENTRICITY": 0.013078, "INCLINATION": 98.3711, "RA_OF_ASC_NODE": 188.6616, "ARG_OF_PERICENTER": 271.3418, "MEAN_ANOMALY": 87.2772, "EPHEMERIS_TYPE": 0, "CLASSIFICATION_TYPE": "U", "NORAD_CAT_ID": 29964, "ELEMENT_SET_NO": 999, "REV_AT_EPOCH": 96308, "BSTAR": 0.0013496, "MEAN_MOTION_DOT": 2.209e-05, "MEAN_MOTION_DDOT": 0}, "tle": {"line1": "1 29964U 99025KN  25346.10529562  .00002209  00000+0  13496-2 0  9992", "line2": "2 29964  98.3711 188.6616 0130780 271.3418  87.2772 14.02740100963080"}}, "geometry": {"type": "Point", "coordinates": [85.1012544505913, 81.3769894097101]}}, {"type": "Feature", "properties": {"norad_id": 29965, "name": "FENGYUN 1C DEB", "group": "fengyun-1c-debris", "lat": -31.39378987174901, "lon": 155.52233793527498, "alt_km": 998.6966966003256, "timestamp": "2025-12-12T09:49:09.004208+00:00", "meta": {"OBJECT_NAME": "FENGYUN 1C DEB", "OBJECT_ID": "1999-025KP", "EPOCH": "2025-12-11T22:50:20.265216", "MEAN_MOTION": 13.95775533, "ECCENTRICITY": 0.0146128, "INCLINATION": 98.9626, "RA_OF_ASC_NODE": 340.6037, "ARG_OF_PERICENTER": 70.1544, "MEAN_ANOMALY": 2.9204, "EPHEMERIS_TYPE": 0, "CLASSIFICATION_TYPE": "U", "NORAD_CAT_ID": 29965, "ELEMENT_SET_NO": 999, "REV_AT_EPOCH": 96265, "BSTAR": 0.00028168, "MEAN_MOTION_DOT": 3.78e-06, "MEAN_MOTION_DDOT": 0}, "tle": {"line1": "1 29965U 99025KP  25345.95162344  .00000378  00000+0  28168-3 0  9994", "line2": "2 29965  98.9626 340.6037 0146128  70.1544   2.9204 13.95775533962652"}}, "geometry": {"type": "Point", "coordinates": [155.52233793527498, -31.39378987174901]}}, {"type": "Feature", "properties": {"norad_id": 29966, "name": "FENGYUN 1C DEB", "group": "fengyun-1c-debris", "lat": 19.139594627678658, "lon": -169.98518021920069, "alt_km": 782.1981856700786, "timestamp": "2025-12-12T09:49:09.004219+00:00", "meta": {"OBJECT_NAME": "FENGYUN 1C DEB", "OBJECT_ID": "1999-025KQ", "EPOCH": "2025-12-12T02:59:31.362720", "MEAN_MOTION": 14.25750675, "ECCENTRICITY": 0.0039648, "INCLINATION": 99.4914, "RA_OF_ASC_NODE": 193.0356, "ARG_OF_PERICENTER": 347.1723, "MEAN_ANOMALY": 12.8442, "EPHEMERIS_TYPE": 0, "CLASSIFICATION_TYPE": "U", "NORAD_CAT_ID": 29966, "ELEMENT_SET_NO": 999, "REV_AT_EPOCH": 98034, "BSTAR": 0.00056272, "MEAN_MOTION_DOT": 1.296e-05, "MEAN_MOTION_DDOT": 0}, "tle": {"line1": "1 29966U 99025KQ  25346.12466855  .00001296  00000+0  56272-3 0  9996", "line2": "2 29966  99.4914 193.0356 0039648 347.1723  12.8442 14.25750675980341"}}, "geometry": {"type": "Point", "coordinates": [-169.98518021920069, 19.139594627678658]}}, {"type": "Feature", "properties": {"norad_id": 29967, "name": "FENGYUN 1C DEB", "group": "fengyun-1c-debris", "lat": -15.533508042486282, "lon": -119.47433847347368, "alt_km": 824.9885958865716, "timestamp": "2025-12-12T09:49:09.004230+00:00", "meta": {"OBJECT_NAME": "FENGYUN 1C DEB", "OBJECT_ID": "1999-025KR", "EPOCH": "2025-12-12T03:58:30.279072", "MEAN_MOTION": 14.235864, "ECCENTRICITY": 0.007591, "INCLINATION": 98.8649, "RA_OF_ASC_NODE": 62.7666, "ARG_OF_PERICENTER": 294.161, "MEAN_ANOMALY": 95.0774, "EPHEMERIS_TYPE": 0, "CLASSIFICATION_TYPE": "U", "NORAD_CAT_ID": 29967, "ELEMENT_SET_NO": 999, "REV_AT_EPOCH": 97214, "BSTAR": 0.0023248, "MEAN_MOTION_DOT": 5.412e-05, "MEAN_MOTION_DDOT": 0}, "tle": {"line1": "1 29967U 99025KR  25346.16562823  .00005412  00000+0  23248-2 0  9993", "line2": "2 29967  98.8649  62.7666 0075910 294.1610  95.0774 14.23586400972145"}}, "geometry": {"type": "Point", "coordinates": [-119.47433847347368, -15.533508042486282]}}, {"type": "Feature", "properties": {"norad_id": 29968, "name": "FENGYUN 1C DEB", "group": "fengyun-1c-debris", "lat": 40.99727832675322, "lon": 163.90778734912774, "alt_km": 917.1442793540409, "timestamp": "2025-12-12T09:49:09.004240+00:00", "meta": {"OBJECT_NAME": "FENGYUN 1C DEB", "OBJECT_ID": "1999-025KS", "EPOCH": "2025-12-11T23:11:01.942944", "MEAN_MOTION": 14.07256421, "ECCENTRICITY": 0.0090121, "INCLINATION": 98.8044, "RA_OF_ASC_NODE": 335.7341, "ARG_OF_PERICENTER": 356.9485, "MEAN_ANOMALY": 57.0036, "EPHEMERIS_TYPE": 0, "CLASSIFICATION_TYPE": "U", "NORAD_CAT_ID": 29968, "ELEMENT_SET_NO": 999, "REV_AT_EPOCH": 97038, "BSTAR": 0.00031716, "MEAN_MOTION_DOT": 5.09e-06, "MEAN_MOTION_DDOT": 0}, "tle": {"line1": "1 29968U 99025KS  25345.96599471  .00000509  00000+0  31716-3 0  9992", "line2": "2 29968  98.8044 335.7341 0090121 356.9485  57.0036 14.07256421970388"}}, "geometry": {"type": "Point", "coordinates": [163.90778734912774, 40.99727832675322]}}, {"type": "Feature", "properties": {"norad_id": 29969, "name": "FENGYUN 1C DEB", "group": "fengyun-1c-debris", "lat": 15.136891124713, "lon": -106.89568578646183, "alt_km": 793.2983009879581, "timestamp": "2025-12-12T09:49:09.004250+00:00", "meta": {"OBJECT_NAME": "FENGYUN 1C DEB", "OBJECT_ID": "1999-025KT", "EPOCH": "2025-12-11T04:49:26.101920", "MEAN_MOTION": 14.33193839, "ECCENTRICITY": 0.00417649, "INCLINATION": 98.7703, "RA_OF_ASC_NODE": 69.4877, "ARG_OF_PERICENTER": 55.2524, "MEAN_ANOMALY": 359.0146, "EPHEMERIS_TYPE": 0, "CLASSIFICATION_TYPE": "U", "NORAD_CAT_ID": 29969, "ELEMENT_SET_NO": 999, "REV_AT_EPOCH": 97640, "BSTAR": 0.0025726709, "MEAN_MOTION_DOT": 7.099e-05, "MEAN_MOTION_DDOT": 0}, "tle": {"line1": "1 29969U 99025KT  25345.20099655  .00007099  00000+0  25727-2 0  9994", "line2": "2 29969  98.7703  69.4877 0041764  55.2524 359.0146 14.33193839976405"}}, "geometry": {"type": "Point", "coordinates": [-106.89568578646183, 15.136891124713]}}, {"type": "Feature", "properties": {"norad_id": 29970, "name": "FENGYUN 1C DEB", "group": "fengyun-1c-debris", "lat": -3.1720632736025185, "lon": -84.79788103946682, "alt_km": 812.1005332087834, "timestamp": "2025-12-12T09:49:09.004261+00:00", "meta": {"OBJECT_NAME": "FENGYUN 1C DEB", "OBJECT_ID": "1999-025KU", "EPOCH": "2025-12-11T17:21:41.730624", "MEAN_MOTION": 14.43947854, "ECCENTRICITY": 0.00906999, "INCLINATION": 98.8079, "RA_OF_ASC_NODE": 274.0002, "ARG_OF_PERICENTER": 190.5498, "MEAN_ANOMALY": 203.6103, "EPHEMERIS_TYPE": 0, "CLASSIFICATION_TYPE": "U", "NORAD_CAT_ID": 29970, "ELEMENT_SET_NO": 999, "REV_AT_EPOCH": 99106, "BSTAR": 0.00072088193, "MEAN_MOTION_DOT": 2.538e-05, "MEAN_MOTION_DDOT": 0}, "tle": {"line1": "1 29970U 99025KU  25345.72339966  .00002538  00000+0  72088-3 0  9991", "line2": "2 29970  98.8079 274.0002 0090699 190.5498 203.6103 14.43947854991063"}}, "geometry": {"type": "Point", "coordinates": [-84.79788103946682, -3.1720632736025185]}}, {"type": "Feature", "properties": {"norad_id": 29971, "name": "FENGYUN 1C DEB", "group": "fengyun-1c-debris", "lat": 5.630496911738489, "lon": 25.321616216470396, "alt_km": 850.095282278342, "timestamp": "2025-12-12T09:49:09.004271+00:00", "meta": {"OBJECT_NAME": "FENGYUN 1C DEB", "OBJECT_ID": "1999-025KV", "EPOCH": "2025-12-12T01:36:25.235136", "MEAN_MOTION": 14.18175444, "ECCENTRICITY": 0.0023839, "INCLINATION": 98.6835, "RA_OF_ASC_NODE": 25.8502, "ARG_OF_PERICENTER": 169.6407, "MEAN_ANOMALY": 250.2919, "EPHEMERIS_TYPE": 0, "CLASSIFICATION_TYPE": "U", "NORAD_CAT_ID": 29971, "ELEMENT_SET_NO": 999, "REV_AT_EPOCH": 97330, "BSTAR": 0.0012733, "MEAN_MOTION_DOT": 2.581e-05, "MEAN_MOTION_DDOT": 0}, "tle": {"line1": "1 29971U 99025KV  25346.06695874  .00002581  00000+0  12733-2 0  9991", "line2": "2 29971  98.6835  25.8502 0023839 169.6407 250.2919 14.18175444973308"}}, "geometry": {"type": "Point", "coordinates": [25.321616216470396, 5.630496911738489]}}, {"type": "Feature", "properties": {"norad_id": 29972, "name": "FENGYUN 1C DEB", "group": "fengyun-1c-debris", "lat": 65.9479911815112, "lon": -160.90862182811415, "alt_km": 673.1552835497914, "timestamp": "2025-12-12T09:49:09.004281+00:00", "meta": {"OBJECT_NAME": "FENGYUN 1C DEB", "OBJECT_ID": "1999-025KW", "EPOCH": "2025-12-11T23:44:59.858016", "MEAN_MOTION": 14.66330864, "ECCENTRICITY": 0.0064888, "INCLINATION": 98.9218, "RA_OF_ASC_NODE": 358.0278, "ARG_OF_PERICENTER": 14.7142, "MEAN_ANOMALY": 43.5042, "EPHEMERIS_TYPE": 0, "CLASSIFICATION_TYPE": "U", "NORAD_CAT_ID": 29972, "ELEMENT_SET_NO": 999, "REV_AT_EPOCH": 99475, "BSTAR": 0.0019488, "MEAN_MOTION_DOT": 0.00011056, "MEAN_MOTION_DDOT": 0}, "tle": {"line1": "1 29972U 99025KW  25345.98958169  .00011056  00000+0  19488-2 0  9992", "line2": "2 29972  98.9218 358.0278 0064888  14.7142  43.5042 14.66330864994757"}}, "geometry": {"type": "Point", "coordinates": [-160.90862182811415, 65.9479911815112]}}]}